STARLINK-2636           
1 48357U 21038E   26068.04149262  .00015158  00000+0  52220-3 0  9994
2 48357  53.1585   1.1380 0001199 105.2085 254.9048 15.30240385266984
AETHER-2                
1 58299U 23174AV  26068.71793741  .00008341  00000+0  26166-3 0  9990
2 58299  97.3931 151.9008 0008630 139.5247 220.6639 15.33264165129982
