[{"OBJECT_NAME":"STARLINK-2636","OBJECT_ID":"2021-038E","EPOCH":"2026-03-09T00:59:44.962368","MEAN_MOTION":15.30240385,"ECCENTRICITY":0.00011991,"INCLINATION":53.1585,"RA_OF_ASC_NODE":1.138,"ARG_OF_PERICENTER":105.2085,"MEAN_ANOMALY":254.9048,"EPHEMERIS_TYPE":0,"CLASSIFICATION_TYPE":"U","NORAD_CAT_ID":48357,"ELEMENT_SET_NO":999,"REV_AT_EPOCH":26698,"BSTAR":0.00052220214,"MEAN_MOTION_DOT":0.00015158,"MEAN_MOTION_DDOT":0},{"OBJECT_NAME":"AETHER-2","OBJECT_ID":"2023-174AV","EPOCH":"2026-03-09T17:13:49.792224","MEAN_MOTION":15.33264165,"ECCENTRICITY":0.00086301,"INCLINATION":97.3931,"RA_OF_ASC_NODE":151.9008,"ARG_OF_PERICENTER":139.5247,"MEAN_ANOMALY":220.6639,"EPHEMERIS_TYPE":0,"CLASSIFICATION_TYPE":"U","NORAD_CAT_ID":58299,"ELEMENT_SET_NO":999,"REV_AT_EPOCH":12998,"BSTAR":0.00026165949,"MEAN_MOTION_DOT":8.341e-5,"MEAN_MOTION_DDOT":0}]
